{
    "links": {
        "self": "http://www.neowsapp.com/rest/v1/neo/3760954?api_key=iIulBulltgU6a56xZRHN4H3l9WmuAYTsLGpBGhQ2"
    },
    "id": "3760954",
    "neo_reference_id": "3760954",
    "name": "(2016 TG56)",
    "designation": "2016 TG56",
    "nasa_jpl_url": "http://ssd.jpl.nasa.gov/sbdb.cgi?sstr=3760954",
    "absolute_magnitude_h": 23.5,
    "estimated_diameter": {
        "kilometers": {
            "estimated_diameter_min": 0.0530340723,
            "estimated_diameter_max": 0.1185877909
        },
        "meters": {
            "estimated_diameter_min": 53.0340723319,
            "estimated_diameter_max": 118.5877908577
        },
        "miles": {
            "estimated_diameter_min": 0.0329538346,
            "estimated_diameter_max": 0.0736870142
        },
        "feet": {
            "estimated_diameter_min": 173.9963058693,
            "estimated_diameter_max": 389.0675677576
        }
    },
    "is_potentially_hazardous_asteroid": false,
    "close_approach_data": [
        {
            "close_approach_date": "2006-09-30",
            "close_approach_date_full": "2006-Sep-30 22:37",
            "epoch_date_close_approach": 1159655820000,
            "relative_velocity": {
                "kilometers_per_second": "15.1122484689",
                "kilometers_per_hour": "54404.0944881048",
                "miles_per_hour": "33804.5886001227"
            },
            "miss_distance": {
                "astronomical": "0.3266307754",
                "lunar": "127.0593716306",
                "kilometers": "48863268.276288398",
                "miles": "30362226.9917119724"
            },
            "orbiting_body": "Earth"
        },
        {
            "close_approach_date": "2011-10-03",
            "close_approach_date_full": "2011-Oct-03 20:13",
            "epoch_date_close_approach": 1317672780000,
            "relative_velocity": {
                "kilometers_per_second": "14.3337599445",
                "kilometers_per_hour": "51601.5358000765",
                "miles_per_hour": "32063.1876197753"
            },
            "miss_distance": {
                "astronomical": "0.2281921014",
                "lunar": "88.7667274446",
                "kilometers": "34137052.320264018",
                "miles": "21211780.7084707284"
            },
            "orbiting_body": "Earth"
        },
        {
            "close_approach_date": "2016-10-05",
            "close_approach_date_full": "2016-Oct-05 18:06",
            "epoch_date_close_approach": 1475690760000,
            "relative_velocity": {
                "kilometers_per_second": "14.2234351472",
                "kilometers_per_hour": "51204.3665298275",
                "miles_per_hour": "31816.4020807142"
            },
            "miss_distance": {
                "astronomical": "0.2388788897",
                "lunar": "92.9238880933",
                "kilometers": "35735773.087084939",
                "miles": "22205179.7284485982"
            },
            "orbiting_body": "Earth"
        },
        {
            "close_approach_date": "2021-10-09",
            "close_approach_date_full": "2021-Oct-09 08:35",
            "epoch_date_close_approach": 1633768500000,
            "relative_velocity": {
                "kilometers_per_second": "14.7306266682",
                "kilometers_per_hour": "53030.2560056726",
                "miles_per_hour": "32950.9387941914"
            },
            "miss_distance": {
                "astronomical": "0.3476479611",
                "lunar": "135.2350568679",
                "kilometers": "52007394.490402857",
                "miles": "32315896.4283071466"
            },
            "orbiting_body": "Earth"
        },
        {
            "close_approach_date": "2026-10-14",
            "close_approach_date_full": "2026-Oct-14 16:56",
            "epoch_date_close_approach": 1791996960000,
            "relative_velocity": {
                "kilometers_per_second": "15.5358088324",
                "kilometers_per_hour": "55928.911796483",
                "miles_per_hour": "34752.050777098"
            },
            "miss_distance": {
                "astronomical": "0.4915257608",
                "lunar": "191.2035209512",
                "kilometers": "73531206.865809496",
                "miles": "45690173.2649272048"
            },
            "orbiting_body": "Earth"
        }
    ],
    "orbital_data": {
        "orbit_id": "3",
        "orbit_determination_date": "2017-04-06 08:23:03",
        "first_observation_date": "2016-10-10",
        "last_observation_date": "2016-11-05",
        "data_arc_in_days": 26,
        "observations_used": 11,
        "orbit_uncertainty": "7",
        "minimum_orbit_intersection": ".217619",
        "jupiter_tisserand_invariant": "4.625",
        "epoch_osculation": "2459000.5",
        "eccentricity": ".1311758794458376",
        "semi_major_axis": "1.399826939035197",
        "inclination": "27.98282898370454",
        "ascending_node_longitude": "12.47571649343987",
        "orbital_period": "604.9367203203986",
        "perihelion_distance": "1.21620340923528",
        "perihelion_argument": "353.1071695166728",
        "aphelion_distance": "1.583450468835114",
        "perihelion_time": "2458861.744574726825",
        "mean_anomaly": "82.57384850416497",
        "mean_motion": ".5951035668810609",
        "equinox": "J2000",
        "orbit_class": {
            "orbit_class_type": "AMO",
            "orbit_class_description": "Near-Earth asteroid orbits similar to that of 1221 Amor",
            "orbit_class_range": "1.017 AU < q (perihelion) < 1.3 AU"
        }
    },
    "is_sentry_object": false
}